NORAD_CAT_ID,OBJECT_NAME,OBJECT_TYPE,EPOCH,MEAN_MOTION,ECCENTRICITY,INCLINATION,RA_OF_ASC_NODE,ARG_OF_PERICENTER,MEAN_ANOMALY,BSTAR,MEAN_MOTION_DOT,MEAN_MOTION_DDOT,TLE_LINE0,TLE_LINE1,TLE_LINE2,SEMIMAJOR_AXIS,PERIOD,APOGEE,PERIGEE,DECAYED
49161.0,STARLINK-3080,PAYLOAD,2021-12-13 22:00:00,15.2010568,0.0003559,70.0001,235.1727,286.7368,112.4489,-0.032816,-0.00659218,0.0,0 STARLINK-3080,1 49161U 21082AH  21347.91667824 -.00659218  00000-0 -32816-1 0  9998,2 49161  70.0001 235.1727 0003559 286.7368 112.4489 15.20105680  3640,6883.659000000002,94.73,507.973,503.074,0.0
49161.0,STARLINK-3080,PAYLOAD,2021-12-14 14:00:01,15.19168931,0.0003485,70.0,233.4341,284.6639,160.5884,-0.033551,-0.00656064,0.0,0 STARLINK-3080,1 49161U 21082AH  21348.58334491 -.00656064  00000-0 -33551-1 0  9996,2 49161  70.0000 233.4341 0003485 284.6639 160.5884 15.19168931 15448,6886.488,94.789,510.753,505.953,0.0
49161.0,STARLINK-3080,PAYLOAD,2021-12-14 22:00:00,15.18702926,0.0003537,70.0001,232.5659,289.1434,178.3007,-0.034181,-0.00659175,0.0,0 STARLINK-3080,1 49161U 21082AH  21348.91667824 -.00659175  00000-0 -34181-1 0  9998,2 49161  70.0001 232.5659 0003537 289.1434 178.3007 15.18702926  3653,6887.897,94.818,512.198,507.325,0.0
49161.0,STARLINK-3080,PAYLOAD,2021-12-15 14:22:36,15.17747048,0.0003196,69.9999,230.7901,278.2078,317.6031,-0.035227,-0.0066783,0.0,0 STARLINK-3080,1 49161U 21082AH  21349.59902778 -.00667830  00000-0 -35227-1 0  9992,2 49161  69.9999 230.7901 0003196 278.2078 317.6031 15.17747048  3647,6890.788000000001,94.877,514.856,510.451,0.0
49161.0,STARLINK-3080,PAYLOAD,2021-12-15 22:00:01,15.17299352,0.0003425,70.0,229.9644,289.4065,241.3137,-0.035496,-0.00664562,0.0,0 STARLINK-3080,1 49161U 21082AH  21349.91668981 -.00664562  00000-0 -35496-1 0  9990,2 49161  70.0000 229.9644 0003425 289.4065 241.3137 15.17299352 15656,6892.144,94.905,516.369,511.648,0.0
49161.0,STARLINK-3080,PAYLOAD,2021-12-16 14:00:01,15.16366639,0.0003256,69.9999,228.2333,282.788,287.2065,-0.036651,-0.00667851,0.0,0 STARLINK-3080,1 49161U 21082AH  21350.58334491 -.00667851  00000-0 -36651-1 0  9999,2 49161  69.9999 228.2333 0003256 282.7880 287.2065 15.16366639  3636,6894.97,94.964,519.08,514.59,0.0
49161.0,STARLINK-3080,PAYLOAD,2021-12-16 22:00:01,15.15896098,0.000334,70.0001,227.3687,287.522,301.3653,-0.036854,-0.00662924,0.0,0 STARLINK-3080,1 49161U 21082AH  21350.91668981 -.00662924  00000-0 -36854-1 0  9991,2 49161  70.0001 227.3687 0003340 287.5220 301.3653 15.15896098  3626,6896.396,94.993,520.565,515.9580000000002,0.0
49161.0,STARLINK-3080,PAYLOAD,2021-12-17 06:00:00,15.15431832,0.0003153,69.9997,226.5046,275.661,331.4294,-0.037633,-0.00667709,0.0,0 STARLINK-3080,1 49161U 21082AH  21351.25001157 -.00667709  00000-0 -37633-1 0  9997,2 49161  69.9997 226.5046 0003153 275.6610 331.4294 15.15431832 15854,6897.805,95.022,521.845,517.495,0.0
49161.0,STARLINK-3080,PAYLOAD,2021-12-17 22:00:00,15.14493738,0.0003358,70.0001,224.7786,286.3206,355.6243,-0.038331,-0.006626,0.0,0 STARLINK-3080,1 49161U 21082AH  21351.91667824 -.00662600  00000-0 -38331-1 0  9990,2 49161  70.0001 224.7786 0003358 286.3206 355.6243 15.14493738  3649,6900.653,95.081,524.835,520.201,0.0
49161.0,STARLINK-3080,PAYLOAD,2021-12-18 14:00:01,15.13559713,0.0003327,70.0001,223.0549,281.2779,33.2776,-0.039465,-0.00664342,0.0,0 STARLINK-3080,1 49161U 21082AH  21352.58334491 -.00664342  00000-0 -39465-1 0  9999,2 49161  70.0001 223.0549 0003327 281.2779  33.2776 15.13559713 16057,6903.4919999999975,95.14,527.653,523.06,0.0
49161.0,STARLINK-3080,PAYLOAD,2021-12-18 22:08:36,15.14314395,0.0003143999999999,69.9959,222.1915,267.6585,92.4223,-0.010964,-0.00196038,0.0,0 STARLINK-3080,1 49161U 21082AH  21352.92263960 -.00196038  00000-0 -10964-1 0  9994,2 49161  69.9959 222.1915 0003144 267.6585  92.4223 15.14314395 16109,6901.198,95.093,525.2330000000002,520.893,0.0
49161.0,STARLINK-3080,PAYLOAD,2021-12-19 13:59:57,15.13913687,0.0006772999999999,69.99600000000001,220.483,280.5371,79.5033,-0.0042334,-0.00076192,0.0,0 STARLINK-3080,1 49161U 21082AH  21353.58330252 -.00076192  00000-0 -42334-2 0  9991,2 49161  69.9960 220.4830 0006773 280.5371  79.5033 15.13913687 16200,6902.415,95.118,528.955,519.605,0.0
49161.0,STARLINK-3080,PAYLOAD,2021-12-19 22:00:00,15.11690573,0.0003578,70.0,219.6151,289.3955,83.6537,-0.041642,-0.00665221,0.0,0 STARLINK-3080,1 49161U 21082AH  21353.91667824 -.00665221  00000-0 -41642-1 0  9993,2 49161  70.0000 219.6151 0003578 289.3955  83.6537 15.11690573 16253,6909.181,95.258,533.518,528.5740000000002,0.0
49161.0,STARLINK-3080,PAYLOAD,2021-12-20 14:00:01,15.10753967,0.0003399,70.0001,217.8989,282.3588,116.5742,-0.042554,-0.00662485,0.0,0 STARLINK-3080,1 49161U 21082AH  21354.58334491 -.00662485  00000-0 -42554-1 0  9990,2 49161  70.0001 217.8989 0003399 282.3588 116.5742 15.10753967  3637,6912.036,95.317,536.251,531.552,0.0
49161.0,STARLINK-3080,PAYLOAD,2021-12-20 22:00:01,15.10288614,0.0003535,70.0,217.0417,289.0504,122.0454,-0.043359,-0.0066615,0.0,0 STARLINK-3080,1 49161U 21082AH  21354.91668981 -.00666150  00000-0 -43359-1 0  9998,2 49161  70.0000 217.0417 0003535 289.0504 122.0454 15.10288614 16401,6913.456,95.346,537.765,532.877,0.0
49161.0,STARLINK-3080,PAYLOAD,2021-12-21 14:00:01,15.09236733,0.0003612,69.9994,215.3306,286.8699,146.7425,-0.033196,-0.00499353,0.0,0 STARLINK-3080,1 49161U 21082AH  21355.58334491 -.00499353  00000-0 -33196-1 0  9995,2 49161  69.9994 215.3306 0003612 286.8699 146.7425 15.09236733  3594,6916.668000000002,95.412,541.031,536.035,0.0
49161.0,STARLINK-3080,PAYLOAD,2021-12-21 22:00:00,15.08886147,0.0003488,70.0,214.474,289.288,154.683,-0.045073,-0.0066623,0.0,0 STARLINK-3080,1 49161U 21082AH  21355.91667824 -.00666230  00000-0 -45073-1 0  9998,2 49161  70.0000 214.4740 0003488 289.2880 154.6830 15.08886147  3628,6917.739000000001,95.435,542.0169999999998,537.191,0.0
49161.0,STARLINK-3080,PAYLOAD,2021-12-22 14:00:01,15.07949693,0.0003454,70.0001,212.7651,287.9839,175.1431,-0.046013,-0.00663114,0.0,0 STARLINK-3080,1 49161U 21082AH  21356.58334491 -.00663114  00000-0 -46013-1 0  9996,2 49161  70.0001 212.7651 0003454 287.9839 175.1431 15.07949693  3612,6920.603,95.494,544.8580000000002,540.078,0.0
49161.0,STARLINK-3080,PAYLOAD,2021-12-22 22:00:00,15.07483351,0.00034,70.0,211.9117,288.2515,183.6121,-0.046795,-0.00665682,0.0,0 STARLINK-3080,1 49161U 21082AH  21356.91667824 -.00665682  00000-0 -46795-1 0  9991,2 49161  70.0000 211.9117 0003400 288.2515 183.6121 15.07483351  3631,6922.03,95.523,546.249,541.5419999999998,0.0
49161.0,STARLINK-3080,PAYLOAD,2021-12-23 14:00:01,15.06547581,0.0003386,70.0001,210.2066,287.6272,200.0283,-0.047837,-0.00663558,0.0,0 STARLINK-3080,1 49161U 21082AH  21357.58334491 -.00663558  00000-0 -47837-1 0  9994,2 49161  70.0001 210.2066 0003386 287.6272 200.0283 15.06547581 16815,6924.896,95.583,549.106,544.4169999999998,0.0
49161.0,STARLINK-3080,PAYLOAD,2021-12-23 22:00:00,15.06080436,0.0003375,70.0,209.355,288.5974,206.1131,-0.048552,-0.00664919,0.0,0 STARLINK-3080,1 49161U 21082AH  21357.91667824 -.00664919  00000-0 -48552-1 0  9997,2 49161  70.0000 209.3550 0003375 288.5974 206.1131 15.06080436  3634,6926.328,95.612,550.531,545.856,0.0
49161.0,STARLINK-3080,PAYLOAD,2021-12-24 14:00:01,15.05145316,0.0003348,70.0001,207.6536,287.5331,219.6051,-0.049701,-0.00663772,0.0,0 STARLINK-3080,1 49161U 21082AH  21358.58334491 -.00663772  00000-0 -49701-1 0  9995,2 49161  70.0001 207.6536 0003348 287.5331 219.6051 15.05145316  3612,6929.196999999999,95.672,553.382,548.742,0.0
49161.0,STARLINK-3080,PAYLOAD,2021-12-24 22:00:00,15.04677496,0.0003359,70.0,206.8039,289.3875,223.1241,-0.050353,-0.00664058,0.0,0 STARLINK-3080,1 49161U 21082AH  21358.91667824 -.00664058  00000-0 -50353-1 0  9994,2 49161  70.0000 206.8039 0003359 289.3875 223.1241 15.04677496 17013,6930.6330000000025,95.702,554.826,550.17,0.0
49161.0,STARLINK-3080,PAYLOAD,2021-12-25 14:00:01,15.03742937,0.0003304,70.0001,205.1062,287.0287,234.5467,-0.05161,-0.00663819,0.0,0 STARLINK-3080,1 49161U 21082AH  21359.58334491 -.00663819  00000-0 -51610-1 0  9990,2 49161  70.0001 205.1062 0003304 287.0287 234.5467 15.03742937  3613,6933.504,95.761,557.66,553.078,0.0
49161.0,STARLINK-3080,PAYLOAD,2021-12-25 22:00:00,15.03274806,0.0003339,70.0,204.2583,289.6901,235.5769,-0.052238,-0.00663575,0.0,0 STARLINK-3080,1 49161U 21082AH  21359.91667824 -.00663575  00000-0 -52238-1 0  9992,2 49161  70.0000 204.2583 0003339 289.6901 235.5769 15.03274806  3610,6934.943,95.791,559.124,554.493,0.0
49161.0,STARLINK-3080,PAYLOAD,2021-12-26 06:00:02,15.02808295,0.0003161,69.9998,203.4109,281.5034,246.9564,-0.053026,-0.00665144,0.0,0 STARLINK-3080,1 49161U 21082AH  21360.25002315 -.00665144  00000-0 -53026-1 0  9999,2 49161  69.9998 203.4109 0003161 281.5034 246.9564 15.02808295 17213,6936.379,95.821,560.436,556.0509999999998,0.0
49161.0,STARLINK-3080,PAYLOAD,2021-12-26 14:00:01,15.02341281,0.000334,70.0001,202.5644,289.225,241.7417,-0.053741,-0.0066578,0.0,0 STARLINK-3080,1 49161U 21082AH  21360.58334491 -.00665780  00000-0 -53741-1 0  9998,2 49161  70.0001 202.5644 0003340 289.2250 241.7417 15.02341281  3615,6937.816,95.85,561.998,557.364,0.0
49161.0,STARLINK-3080,PAYLOAD,2021-12-26 22:00:00,15.01745284,0.0003366,70.0001,201.7186,288.7365,244.2609,-0.020296,-0.00255488,0.0,0 STARLINK-3080,1 49161U 21082AH  21360.91667824 -.00255488  00000-0 -20296-1 0  9993,2 49161  70.0001 201.7186 0003366 288.7365 244.2609 15.01745284  3617,6939.651,95.888,563.852,559.181,0.0
49161.0,STARLINK-3080,PAYLOAD,2021-12-27 06:00:00,15.01570477,0.000316,69.9998,200.8737,278.7293,255.7322,-0.00026695,-3.5600000000000005e-05,0.0,0 STARLINK-3080,1 49161U 21082AH  21361.25001157 -.00003560  00000-0 -26695-3 0  9995,2 49161  69.9998 200.8737 0003160 278.7293 255.7322 15.01570477 17368,6940.19,95.9,564.248,559.862,0.0
